[{"OBJECT_NAME":"ONEWEB-0381","OBJECT_ID":"2021-090AE","EPOCH":"2026-03-09T14:43:59.550816","MEAN_MOTION":13.20769924,"ECCENTRICITY":0.0001429,"INCLINATION":87.9172,"RA_OF_ASC_NODE":294.3208,"ARG_OF_PERICENTER":76.7919,"MEAN_ANOMALY":283.3374,"EPHEMERIS_TYPE":0,"CLASSIFICATION_TYPE":"U","NORAD_CAT_ID":49307,"ELEMENT_SET_NO":999,"REV_AT_EPOCH":21668,"BSTAR":0.00010085,"MEAN_MOTION_DOT":5.4e-7,"MEAN_MOTION_DDOT":0},{"OBJECT_NAME":"THORAD AGENA D DEB","OBJECT_ID":"1970-025X","EPOCH":"2026-03-09T09:57:17.080128","MEAN_MOTION":13.33098389,"ECCENTRICITY":0.01124783,"INCLINATION":99.8894,"RA_OF_ASC_NODE":139.1894,"ARG_OF_PERICENTER":314.0154,"MEAN_ANOMALY":105.243,"EPHEMERIS_TYPE":0,"CLASSIFICATION_TYPE":"U","NORAD_CAT_ID":4639,"ELEMENT_SET_NO":999,"REV_AT_EPOCH":71598,"BSTAR":0.00029614951,"MEAN_MOTION_DOT":1.07e-6,"MEAN_MOTION_DDOT":0}]
